OBJECT_NAME,OBJECT_ID,EPOCH,MEAN_MOTION,ECCENTRICITY,INCLINATION,RA_OF_ASC_NODE,ARG_OF_PERICENTER,MEAN_ANOMALY,EPHEMERIS_TYPE,CLASSIFICATION_TYPE,NORAD_CAT_ID,ELEMENT_SET_NO,REV_AT_EPOCH,BSTAR,MEAN_MOTION_DOT,MEAN_MOTION_DDOT
ONEWEB-0336,2021-083S,2026-06-06T10:35:40.897248,13.13469953,.00022337,87.8945,322.3683,97.2868,262.8516,0,U,49202,999,22950,.91744902E-3,.348E-5,0
ONEWEB-0337,2021-083T,2026-06-06T12:39:48.661920,13.13469892,.00019455,87.8943,322.3576,98.8314,261.3035,0,U,49203,999,22951,.97870652E-3,.37E-5,0
ONEWEB-0338,2021-083U,2026-06-06T01:21:09.853920,13.20770380,.0001614,87.9180,276.6683,100.5135,259.6181,0,U,49204,999,23534,.3532E-3,.157E-5,0
ONEWEB-0339,2021-083V,2026-06-06T12:52:11.359776,13.13468984,.00014947,87.8945,322.3480,97.5980,262.5319,0,U,49205,999,22949,.44691448E-3,.176E-5,0
ONEWEB-0340,2021-083W,2026-06-06T12:15:34.188768,13.18686330,.00019904,87.9167,337.5795,90.8454,269.2906,0,U,49206,999,22856,-.31280661E-3,-.11E-5,0
ONEWEB-0341,2021-083X,2026-06-06T12:25:17.142528,13.18686524,.00020524,87.9160,337.5824,104.5818,255.5542,0,U,49207,999,22858,-.1193391E-5,.12E-6,0
ONEWEB-0342,2021-083Y,2026-06-06T01:30:52.334208,13.20770604,.0001802,87.9185,276.6544,102.3704,257.7631,0,U,49208,999,23531,.17151E-3,.83E-6,0
ONEWEB-0343,2021-083Z,2026-06-06T12:37:26.114880,13.18685650,.00013939,87.9173,337.5793,98.4547,261.6743,0,U,49209,999,22863,-.22521256E-4,.4E-7,0
ONEWEB-0344,2021-083AA,2026-06-06T10:55:11.228448,13.13471225,.00019765,87.8935,322.3795,104.8652,255.2696,0,U,49210,999,22948,.79091615E-3,.302E-5,0
ONEWEB-0345,2021-083AB,2026-06-06T10:42:59.490432,13.13470506,.00019094,87.8953,322.3603,103.7464,256.3878,0,U,49211,999,22949,.99793897E-3,.377E-5,0
ONEWEB-0346,2021-083AC,2026-06-06T12:32:34.243584,13.18685369,.00024339,87.9160,337.5804,86.2650,273.8761,0,U,49212,999,22857,-.24973774E-3,-.86E-6,0
ONEWEB-0348,2021-083AD,2026-06-06T13:59:57.023232,13.20770968,.00024816,87.9195,276.5537,102.3284,257.8128,0,U,49213,999,23541,.10603227E-3,.56E-6,0
ONEWEB-0350,2021-083AE,2026-06-06T11:00:46.609920,13.12942259,.00019574,87.8950,322.3607,100.7967,259.3382,0,U,49214,999,22952,.63271083E-3,.242E-5,0
ONEWEB-0351,2021-083AF,2026-06-06T13:50:02.242176,13.20770194,.00015485,87.9192,276.5535,126.9121,233.2154,0,U,49215,999,23537,.34649044E-3,.154E-5,0
ONEWEB-0352,2021-083AG,2026-06-06T10:28:22.327392,13.13470191,.00014627,87.8946,322.3742,102.6282,257.5010,0,U,49216,999,22961,.66181422E-3,.254E-5,0
ONEWEB-0354,2021-083AH,2026-06-06T14:29:03.812640,13.20772774,.00023116,87.9191,276.5478,104.8131,255.3258,0,U,49217,999,23541,.26936244E-3,.123E-5,0
ONEWEB-0355,2021-083AJ,2026-06-06T11:10:00.330240,13.13469139,.00017089,87.8942,322.3700,101.3594,258.7727,0,U,49218,999,22949,.15082045E-3,.68E-6,0
ONEWEB-0357,2021-083AK,2026-06-06T14:24:12.717216,13.20771993,.00017759,87.9194,276.5427,105.2265,254.9065,0,U,49219,999,23541,.66091664E-4,.4E-6,0
ONEWEB-0332,2021-090A,2026-06-06T15:19:04.679040,13.14504357,.00016675,87.8957,291.8121,96.6113,263.5207,0,U,49279,999,22619,-.25431648E-3,-.81E-6,0
ONEWEB-0347,2021-090B,2026-06-06T14:09:39.293568,13.20772161,.00017386,87.9192,276.5530,95.9956,264.1375,0,U,49280,999,22964,-.29994534E-3,-.109E-5,0
ONEWEB-0349,2021-090C,2026-06-06T02:12:06.050880,13.20771523,.0001929,87.9193,276.6525,102.1443,257.9906,0,U,49281,999,22836,.14071E-3,.7E-6,0
ONEWEB-0353,2021-090D,2026-06-06T09:38:51.278496,13.14502319,.00016458,87.8955,291.8539,95.4489,264.6829,0,U,49282,999,22616,-.48589047E-3,-.167E-5,0
ONEWEB-0356,2021-090E,2026-06-05T20:42:24.640416,13.20773247,.00023892,87.9187,276.6915,82.1899,277.9505,0,U,49283,999,22833,-.70353564E-4,-.16E-6,0
ONEWEB-0358,2021-090F,2026-06-06T13:46:36.921216,13.20770682,.0002102,87.9187,276.5532,99.5678,260.5693,0,U,49284,999,22915,.98566483E-4,.53E-6,0
ONEWEB-0359,2021-090G,2026-06-06T13:43:00.045120,13.20772738,.00022323,87.9190,276.5501,102.8782,257.2601,0,U,49285,999,22913,.3234241E-3,.144E-5,0
ONEWEB-0360,2021-090H,2026-06-06T13:28:25.876704,13.20770932,.00019651,87.9196,276.5583,104.1755,255.9596,0,U,49286,999,22844,-.48075912E-3,-.182E-5,0
ONEWEB-0361,2021-090J,2026-06-06T14:50:51.435168,13.20770615,.00021138,87.9188,276.5453,99.6848,260.4524,0,U,49287,999,22890,.18435054E-3,.88E-6,0
ONEWEB-0362,2021-090K,2026-06-06T09:52:10.321248,13.19724934,.00016832,87.9159,307.1257,104.3393,255.7927,0,U,49288,999,22549,-.63104868E-3,-.24E-5,0
ONEWEB-0363,2021-090L,2026-06-06T13:23:34.630944,13.20772150,.00021214,87.9188,276.5576,92.5197,267.6179,0,U,49289,999,22890,-.76446921E-3,-.298E-5,0
ONEWEB-0364,2021-090M,2026-06-06T14:19:20.901216,13.20770777,.00019964,87.9185,276.5583,101.0836,259.0522,0,U,49290,999,23004,.50990806E-3,.22E-5,0
