ONEWEB-0336             
1 49202U 21083S   26157.44144557  .00000348  00000+0  91745-3 0  9999
2 49202  87.8945 322.3683 0002233  97.2868 262.8516 13.13469953229509
ONEWEB-0337             
1 49203U 21083T   26157.52764655  .00000370  00000+0  97871-3 0  9997
2 49203  87.8943 322.3576 0001945  98.8314 261.3035 13.13469892229514
ONEWEB-0338             
1 49204U 21083U   26157.05636405  .00000157  00000+0  35320-3 0  9991
2 49204  87.9180 276.6683 0001614 100.5135 259.6181 13.20770380235349
ONEWEB-0339             
1 49205U 21083V   26157.53624259  .00000176  00000+0  44691-3 0  9991
2 49205  87.8945 322.3480 0001494  97.5980 262.5319 13.13468984229492
ONEWEB-0340             
1 49206U 21083W   26157.51081237 -.00000110  00000+0 -31281-3 0  9994
2 49206  87.9167 337.5795 0001990  90.8454 269.2906 13.18686330228565
ONEWEB-0341             
1 49207U 21083X   26157.51755952  .00000012  00000+0 -11934-5 0  9992
2 49207  87.9160 337.5824 0002052 104.5818 255.5542 13.18686524228580
ONEWEB-0342             
1 49208U 21083Y   26157.06310572  .00000083  00000+0  17151-3 0  9990
2 49208  87.9185 276.6544 0001802 102.3704 257.7631 13.20770604235310
ONEWEB-0343             
1 49209U 21083Z   26157.52599670  .00000004  00000+0 -22521-4 0  9992
2 49209  87.9173 337.5793 0001393  98.4547 261.6743 13.18685650228634
ONEWEB-0344             
1 49210U 21083AA  26157.45499107  .00000302  00000+0  79092-3 0  9994
2 49210  87.8935 322.3795 0001976 104.8652 255.2696 13.13471225229487
ONEWEB-0345             
1 49211U 21083AB  26157.44652188  .00000377  00000+0  99794-3 0  9997
2 49211  87.8953 322.3603 0001909 103.7464 256.3878 13.13470506229497
ONEWEB-0346             
1 49212U 21083AC  26157.52261856 -.00000086  00000+0 -24974-3 0  9992
2 49212  87.9160 337.5804 0002433  86.2650 273.8761 13.18685369228578
ONEWEB-0348             
1 49213U 21083AD  26157.58329888  .00000056  00000+0  10603-3 0  9998
2 49213  87.9195 276.5537 0002481 102.3284 257.8128 13.20770968235411
ONEWEB-0350             
1 49214U 21083AE  26157.45887280  .00000242  00000+0  63271-3 0  9996
2 49214  87.8950 322.3607 0001957 100.7967 259.3382 13.12942259229524
ONEWEB-0351             
1 49215U 21083AF  26157.57641484  .00000154  00000+0  34649-3 0  9993
2 49215  87.9192 276.5535 0001548 126.9121 233.2154 13.20770194235376
ONEWEB-0352             
1 49216U 21083AG  26157.43636953  .00000254  00000+0  66181-3 0  9991
2 49216  87.8946 322.3742 0001462 102.6282 257.5010 13.13470191229613
ONEWEB-0354             
1 49217U 21083AH  26157.60351635  .00000123  00000+0  26936-3 0  9991
2 49217  87.9191 276.5478 0002311 104.8131 255.3258 13.20772774235419
ONEWEB-0355             
1 49218U 21083AJ  26157.46528160  .00000068  00000+0  15082-3 0  9993
2 49218  87.8942 322.3700 0001708 101.3594 258.7727 13.13469139229494
ONEWEB-0357             
1 49219U 21083AK  26157.60014719  .00000040  00000+0  66092-4 0  9998
2 49219  87.9194 276.5427 0001775 105.2265 254.9065 13.20771993235417
ONEWEB-0332             
1 49279U 21090A   26157.63824860 -.00000081  00000+0 -25432-3 0  9990
2 49279  87.8957 291.8121 0001667  96.6113 263.5207 13.14504357226195
ONEWEB-0347             
1 49280U 21090B   26157.59003812 -.00000109  00000+0 -29995-3 0  9992
2 49280  87.9192 276.5530 0001738  95.9956 264.1375 13.20772161229642
ONEWEB-0349             
1 49281U 21090C   26157.09173670  .00000070  00000+0  14071-3 0  9992
2 49281  87.9193 276.6525 0001929 102.1443 257.9906 13.20771523228362
ONEWEB-0353             
1 49282U 21090D   26157.40198239 -.00000167  00000+0 -48589-3 0  9996
2 49282  87.8955 291.8539 0001645  95.4489 264.6829 13.14502319226164
ONEWEB-0356             
1 49283U 21090E   26156.86278519 -.00000016  00000+0 -70354-4 0  9995
2 49283  87.9187 276.6915 0002389  82.1899 277.9505 13.20773247228332
ONEWEB-0358             
1 49284U 21090F   26157.57403844  .00000053  00000+0  98566-4 0  9990
2 49284  87.9187 276.5532 0002102  99.5678 260.5693 13.20770682229154
ONEWEB-0359             
1 49285U 21090G   26157.57152830  .00000144  00000+0  32342-3 0  9997
2 49285  87.9190 276.5501 0002232 102.8782 257.2601 13.20772738229137
ONEWEB-0360             
1 49286U 21090H   26157.56141061 -.00000182  00000+0 -48076-3 0  9996
2 49286  87.9196 276.5583 0001965 104.1755 255.9596 13.20770932228446
ONEWEB-0361             
1 49287U 21090J   26157.61865087  .00000088  00000+0  18435-3 0  9993
2 49287  87.9188 276.5453 0002113  99.6848 260.4524 13.20770615228902
ONEWEB-0362             
1 49288U 21090K   26157.41123057 -.00000240  00000+0 -63105-3 0  9992
2 49288  87.9159 307.1257 0001683 104.3393 255.7927 13.19724934225490
ONEWEB-0363             
1 49289U 21090L   26157.55803971 -.00000298  00000+0 -76447-3 0  9994
2 49289  87.9188 276.5576 0002121  92.5197 267.6179 13.20772150228909
ONEWEB-0364             
1 49290U 21090M   26157.59676969  .00000220  00000+0  50991-3 0  9994
2 49290  87.9185 276.5583 0001996 101.0836 259.0522 13.20770777230049
